ONEWEB-0613             
1 56071U 23043AB  24065.51463632  .00000191  00000+0  47220-3 0  9996
2 56071  87.8955  65.1248 0001929  76.6939 283.4407 13.15547732 46826
ONEWEB-0630             
1 56072U 23043AC  24065.50986343  .00000089  00000+0  20271-3 0  9998
2 56072  87.8951  65.1203 0001748  75.5006 284.6318 13.15550306 46810
ONEWEB-0632             
1 56073U 23043AD  24065.50512726  .00000030  00000+0  46685-4 0  9993
2 56073  87.8953  65.1398 0002324  84.7405 275.3991 13.15549100 46818
ONEWEB-0633             
1 56074U 23043AE  24065.49877174  .00003706  00000+0  98096-2 0  9997
2 56074  87.8949  65.1267 0001335  93.1455 266.9828 13.15527813 46798
ONEWEB-0634             
1 56075U 23043AF  24065.56057561 -.00000067  00000+0 -21320-3 0  9992
2 56075  87.8956  65.1184 0001524  94.0392 266.0913 13.15549372 46795
ONEWEB-0635             
1 56076U 23043AG  24065.55583531 -.00000099  00000+0 -29737-3 0  9998
2 56076  87.8954  65.1767 0002389  85.8495 274.2908 13.15547810 46827
ONEWEB-0636             
1 56077U 23043AH  24065.54789929  .00000007  00000+0 -16139-4 0  9998
2 56077  87.8955  65.1476 0002303  89.5095 270.6300 13.15550004 46802
ONEWEB-0637             
1 56078U 23043AJ  24065.54157227  .00000043  00000+0  79009-4 0  9993
2 56078  87.8957  65.1239 0002400  89.5350 270.6055 13.15547121 46829
